[
  {
    "COMMENT": "GENERATED VIA SPACETRACK.ORG API",
    "ORIGINATOR": "18 SPCS",
    "NORAD_CAT_ID": "26997",
    "OBJECT_NAME": "JASON",
    "OBJECT_TYPE": "PAYLOAD",
    "CLASSIFICATION_TYPE": "U",
    "INTLDES": "01055A",
    "EPOCH": "2023-05-29 15:43:28",
    "EPOCH_MICROSECONDS": "674336",
    "MEAN_MOTION": "12.84021778",
    "ECCENTRICITY": "0.000687",
    "INCLINATION": "66.0392",
    "RA_OF_ASC_NODE": "241.914",
    "ARG_OF_PERICENTER": "264.7067",
    "MEAN_ANOMALY": "200.965",
    "EPHEMERIS_TYPE": "0",
    "ELEMENT_SET_NO": "999",
    "REV_AT_EPOCH": "553",
    "BSTAR": "-0.000031494",
    "MEAN_MOTION_DOT": "-0.00000069",
    "MEAN_MOTION_DDOT": "0",
    "FILE": "3920354",
    "TLE_LINE0": "0 JASON",
    "TLE_LINE1": "1 26997U 01055A   23149.65519299 -.00000069  00000-0 -31494-4 0  9991",
    "TLE_LINE2": "2 26997  66.0392 241.9140 0006870 264.7067 200.9650 12.84021778  5530",
    "OBJECT_ID": "2001-055A",
    "OBJECT_NUMBER": "26997",
    "SEMIMAJOR_AXIS": "7703.479",
    "PERIOD": "112.148",
    "APOGEE": "1330.636",
    "PERIGEE": "1320.052",
    "DECAYED": "0"
  },
  {
    "COMMENT": "GENERATED VIA SPACETRACK.ORG API",
    "ORIGINATOR": "18 SPCS",
    "NORAD_CAT_ID": "26997",
    "OBJECT_NAME": "JASON",
    "OBJECT_TYPE": "PAYLOAD",
    "CLASSIFICATION_TYPE": "U",
    "INTLDES": "01055A",
    "EPOCH": "2023-05-30 04:17:45",
    "EPOCH_MICROSECONDS": "83328",
    "MEAN_MOTION": "12.84021755",
    "ECCENTRICITY": "0.0006862",
    "INCLINATION": "66.0391",
    "RA_OF_ASC_NODE": "240.82",
    "ARG_OF_PERICENTER": "264.7586",
    "MEAN_ANOMALY": "101.9337",
    "EPHEMERIS_TYPE": "0",
    "ELEMENT_SET_NO": "999",
    "REV_AT_EPOCH": "584",
    "BSTAR": "-0.000039461",
    "MEAN_MOTION_DOT": "-0.00000071",
    "MEAN_MOTION_DDOT": "0",
    "FILE": "3920383",
    "TLE_LINE0": "0 JASON",
    "TLE_LINE1": "1 26997U 01055A   23150.17899402 -.00000071  00000-0 -39461-4 0  9992",
    "TLE_LINE2": "2 26997  66.0391 240.8200 0006862 264.7586 101.9337 12.84021755  5842",
    "OBJECT_ID": "2001-055A",
    "OBJECT_NUMBER": "26997",
    "SEMIMAJOR_AXIS": "7703.479",
    "PERIOD": "112.148",
    "APOGEE": "1330.630",
    "PERIGEE": "1320.058",
    "DECAYED": "0"
  },
  {
    "COMMENT": "GENERATED VIA SPACETRACK.ORG API",
    "ORIGINATOR": "18 SPCS",
    "NORAD_CAT_ID": "26997",
    "OBJECT_NAME": "JASON",
    "OBJECT_TYPE": "PAYLOAD",
    "CLASSIFICATION_TYPE": "U",
    "INTLDES": "01055A",
    "EPOCH": "2023-05-30 12:10:07",
    "EPOCH_MICROSECONDS": "17024",
    "MEAN_MOTION": "12.84021757",
    "ECCENTRICITY": "0.0006872",
    "INCLINATION": "66.0392",
    "RA_OF_ASC_NODE": "240.1349",
    "ARG_OF_PERICENTER": "264.7619",
    "MEAN_ANOMALY": "178.1007",
    "EPHEMERIS_TYPE": "0",
    "ELEMENT_SET_NO": "999",
    "REV_AT_EPOCH": "564",
    "BSTAR": "-0.000039085",
    "MEAN_MOTION_DOT": "-0.00000071",
    "MEAN_MOTION_DDOT": "0",
    "FILE": "3920920",
    "TLE_LINE0": "0 JASON",
    "TLE_LINE1": "1 26997U 01055A   23150.50702566 -.00000071  00000-0 -39085-4 0  9995",
    "TLE_LINE2": "2 26997  66.0392 240.1349 0006872 264.7619 178.1007 12.84021757  5648",
    "OBJECT_ID": "2001-055A",
    "OBJECT_NUMBER": "26997",
    "SEMIMAJOR_AXIS": "7703.479",
    "PERIOD": "112.148",
    "APOGEE": "1330.638",
    "PERIGEE": "1320.050",
    "DECAYED": "0"
  },
  {
    "COMMENT": "GENERATED VIA SPACETRACK.ORG API",
    "ORIGINATOR": "18 SPCS",
    "NORAD_CAT_ID": "26997",
    "OBJECT_NAME": "JASON",
    "OBJECT_TYPE": "PAYLOAD",
    "CLASSIFICATION_TYPE": "U",
    "INTLDES": "01055A",
    "EPOCH": "2023-05-30 21:43:22",
    "EPOCH_MICROSECONDS": "831104",
    "MEAN_MOTION": "12.84021754",
    "ECCENTRICITY": "0.0006869",
    "INCLINATION": "66.0392",
    "RA_OF_ASC_NODE": "239.3034",
    "ARG_OF_PERICENTER": "264.8002",
    "MEAN_ANOMALY": "218.0885",
    "EPHEMERIS_TYPE": "0",
    "ELEMENT_SET_NO": "999",
    "REV_AT_EPOCH": "569",
    "BSTAR": "-0.000037554",
    "MEAN_MOTION_DOT": "-0.00000071",
    "MEAN_MOTION_DDOT": "0",
    "FILE": "3921192",
    "TLE_LINE0": "0 JASON",
    "TLE_LINE1": "1 26997U 01055A   23150.90512536 -.00000071  00000-0 -37554-4 0  9994",
    "TLE_LINE2": "2 26997  66.0392 239.3034 0006869 264.8002 218.0885 12.84021754  5692",
    "OBJECT_ID": "2001-055A",
    "OBJECT_NUMBER": "26997",
    "SEMIMAJOR_AXIS": "7703.479",
    "PERIOD": "112.148",
    "APOGEE": "1330.636",
    "PERIGEE": "1320.053",
    "DECAYED": "0"
  },
  {
    "COMMENT": "GENERATED VIA SPACETRACK.ORG API",
    "ORIGINATOR": "18 SPCS",
    "NORAD_CAT_ID": "26997",
    "OBJECT_NAME": "JASON",
    "OBJECT_TYPE": "PAYLOAD",
    "CLASSIFICATION_TYPE": "U",
    "INTLDES": "01055A",
    "EPOCH": "2023-05-31 14:24:44",
    "EPOCH_MICROSECONDS": "455392",
    "MEAN_MOTION": "12.84021756",
    "ECCENTRICITY": "0.0006874",
    "INCLINATION": "66.0392",
    "RA_OF_ASC_NODE": "237.851",
    "ARG_OF_PERICENTER": "264.8175",
    "MEAN_ANOMALY": "192.1767",
    "EPHEMERIS_TYPE": "0",
    "ELEMENT_SET_NO": "999",
    "REV_AT_EPOCH": "578",
    "BSTAR": "-0.000026035",
    "MEAN_MOTION_DOT": "-0.00000068",
    "MEAN_MOTION_DDOT": "0",
    "FILE": "3921767",
    "TLE_LINE0": "0 JASON",
    "TLE_LINE1": "1 26997U 01055A   23151.60051453 -.00000068  00000-0 -26035-4 0  9996",
    "TLE_LINE2": "2 26997  66.0392 237.8510 0006874 264.8175 192.1767 12.84021756  5784",
    "OBJECT_ID": "2001-055A",
    "OBJECT_NUMBER": "26997",
    "SEMIMAJOR_AXIS": "7703.479",
    "PERIOD": "112.148",
    "APOGEE": "1330.640",
    "PERIGEE": "1320.049",
    "DECAYED": "0"
  },
  {
    "COMMENT": "GENERATED VIA SPACETRACK.ORG API",
    "ORIGINATOR": "18 SPCS",
    "NORAD_CAT_ID": "26997",
    "OBJECT_NAME": "JASON",
    "OBJECT_TYPE": "PAYLOAD",
    "CLASSIFICATION_TYPE": "U",
    "INTLDES": "01055A",
    "EPOCH": "2023-05-31 16:34:15",
    "EPOCH_MICROSECONDS": "223008",
    "MEAN_MOTION": "12.84021768",
    "ECCENTRICITY": "0.0006872",
    "INCLINATION": "66.0392",
    "RA_OF_ASC_NODE": "237.6631",
    "ARG_OF_PERICENTER": "264.8359",
    "MEAN_ANOMALY": "247.8606",
    "EPHEMERIS_TYPE": "0",
    "ELEMENT_SET_NO": "999",
    "REV_AT_EPOCH": "579",
    "BSTAR": "-0.000016234",
    "MEAN_MOTION_DOT": "-0.00000065",
    "MEAN_MOTION_DDOT": "0",
    "FILE": "3922037",
    "TLE_LINE0": "0 JASON",
    "TLE_LINE1": "1 26997U 01055A   23151.69045397 -.00000065  00000-0 -16234-4 0  9992",
    "TLE_LINE2": "2 26997  66.0392 237.6631 0006872 264.8359 247.8606 12.84021768  5792",
    "OBJECT_ID": "2001-055A",
    "OBJECT_NUMBER": "26997",
    "SEMIMAJOR_AXIS": "7703.479",
    "PERIOD": "112.148",
    "APOGEE": "1330.638",
    "PERIGEE": "1320.050",
    "DECAYED": "0"
  },
  {
    "COMMENT": "GENERATED VIA SPACETRACK.ORG API",
    "ORIGINATOR": "18 SPCS",
    "NORAD_CAT_ID": "26997",
    "OBJECT_NAME": "JASON",
    "OBJECT_TYPE": "PAYLOAD",
    "CLASSIFICATION_TYPE": "U",
    "INTLDES": "01055A",
    "EPOCH": "2023-06-01 10:52:04",
    "EPOCH_MICROSECONDS": "490400",
    "MEAN_MOTION": "12.84021766",
    "ECCENTRICITY": "0.0006868",
    "INCLINATION": "66.0391",
    "RA_OF_ASC_NODE": "236.0707",
    "ARG_OF_PERICENTER": "264.8727",
    "MEAN_ANOMALY": "171.5429",
    "EPHEMERIS_TYPE": "0",
    "ELEMENT_SET_NO": "999",
    "REV_AT_EPOCH": "589",
    "BSTAR": "-0.000015224",
    "MEAN_MOTION_DOT": "-0.00000065",
    "MEAN_MOTION_DDOT": "0",
    "FILE": "3922365",
    "TLE_LINE0": "0 JASON",
    "TLE_LINE1": "1 26997U 01055A   23152.45282975 -.00000065  00000-0 -15224-4 0  9990",
    "TLE_LINE2": "2 26997  66.0391 236.0707 0006868 264.8727 171.5429 12.84021766  5897",
    "OBJECT_ID": "2001-055A",
    "OBJECT_NUMBER": "26997",
    "SEMIMAJOR_AXIS": "7703.479",
    "PERIOD": "112.148",
    "APOGEE": "1330.635",
    "PERIGEE": "1320.054",
    "DECAYED": "0"
  },
  {
    "COMMENT": "GENERATED VIA SPACETRACK.ORG API",
    "ORIGINATOR": "18 SPCS",
    "NORAD_CAT_ID": "26997",
    "OBJECT_NAME": "JASON",
    "OBJECT_TYPE": "PAYLOAD",
    "CLASSIFICATION_TYPE": "U",
    "INTLDES": "01055A",
    "EPOCH": "2023-06-01 12:47:40",
    "EPOCH_MICROSECONDS": "43904",
    "MEAN_MOTION": "12.8402178",
    "ECCENTRICITY": "0.0006864",
    "INCLINATION": "66.0391",
    "RA_OF_ASC_NODE": "235.903",
    "ARG_OF_PERICENTER": "264.8904",
    "MEAN_ANOMALY": "182.5472",
    "EPHEMERIS_TYPE": "0",
    "ELEMENT_SET_NO": "999",
    "REV_AT_EPOCH": "614",
    "BSTAR": "-0.0000027609",
    "MEAN_MOTION_DOT": "-0.00000062",
    "MEAN_MOTION_DDOT": "0",
    "FILE": "3922450",
    "TLE_LINE0": "0 JASON",
    "TLE_LINE1": "1 26997U 01055A   23152.53310236 -.00000062  00000-0 -27609-5 0  9999",
    "TLE_LINE2": "2 26997  66.0391 235.9030 0006864 264.8904 182.5472 12.84021780  6142",
    "OBJECT_ID": "2001-055A",
    "OBJECT_NUMBER": "26997",
    "SEMIMAJOR_AXIS": "7703.479",
    "PERIOD": "112.148",
    "APOGEE": "1330.632",
    "PERIGEE": "1320.057",
    "DECAYED": "0"
  },
  {
    "COMMENT": "GENERATED VIA SPACETRACK.ORG API",
    "ORIGINATOR": "18 SPCS",
    "NORAD_CAT_ID": "26997",
    "OBJECT_NAME": "JASON",
    "OBJECT_TYPE": "PAYLOAD",
    "CLASSIFICATION_TYPE": "U",
    "INTLDES": "01055A",
    "EPOCH": "2023-06-01 12:47:40",
    "EPOCH_MICROSECONDS": "43904",
    "MEAN_MOTION": "12.8402178",
    "ECCENTRICITY": "0.0006864",
    "INCLINATION": "66.0391",
    "RA_OF_ASC_NODE": "235.903",
    "ARG_OF_PERICENTER": "264.8904",
    "MEAN_ANOMALY": "182.5472",
    "EPHEMERIS_TYPE": "0",
    "ELEMENT_SET_NO": "999",
    "REV_AT_EPOCH": "590",
    "BSTAR": "-0.0000027609",
    "MEAN_MOTION_DOT": "-0.00000062",
    "MEAN_MOTION_DDOT": "0",
    "FILE": "3922718",
    "TLE_LINE0": "0 JASON",
    "TLE_LINE1": "1 26997U 01055A   23152.53310236 -.00000062  00000-0 -27609-5 0  9999",
    "TLE_LINE2": "2 26997  66.0391 235.9030 0006864 264.8904 182.5472 12.84021780  5905",
    "OBJECT_ID": "2001-055A",
    "OBJECT_NUMBER": "26997",
    "SEMIMAJOR_AXIS": "7703.479",
    "PERIOD": "112.148",
    "APOGEE": "1330.632",
    "PERIGEE": "1320.057",
    "DECAYED": "0"
  }
]